[{"OBJECT_NAME":"STARLINK-31306","OBJECT_ID":"2024-020A","EPOCH":"2026-03-09T22:41:18.531168","MEAN_MOTION":15.30186295,"ECCENTRICITY":0.00020004,"INCLINATION":53.1638,"RA_OF_ASC_NODE":320.9951,"ARG_OF_PERICENTER":52.9033,"MEAN_ANOMALY":307.215,"EPHEMERIS_TYPE":0,"CLASSIFICATION_TYPE":"U","NORAD_CAT_ID":58876,"ELEMENT_SET_NO":999,"REV_AT_EPOCH":11929,"BSTAR":4.162504e-6,"MEAN_MOTION_DOT":-2.36e-6,"MEAN_MOTION_DDOT":0},{"OBJECT_NAME":"PHISAT 2","OBJECT_ID":"2024-149C","EPOCH":"2026-03-09T18:55:12.732384","MEAN_MOTION":15.29548632,"ECCENTRICITY":0.00011753,"INCLINATION":97.3806,"RA_OF_ASC_NODE":148.6498,"ARG_OF_PERICENTER":168.623,"MEAN_ANOMALY":191.5037,"EPHEMERIS_TYPE":0,"CLASSIFICATION_TYPE":"U","NORAD_CAT_ID":60470,"ELEMENT_SET_NO":999,"REV_AT_EPOCH":8679,"BSTAR":0.00031420974,"MEAN_MOTION_DOT":8.925e-5,"MEAN_MOTION_DDOT":0}]
